{
  "type": "FeatureCollection",
  "features": [
    {
      "type": "Feature",
      "properties": {
        "norad_id": 43260,
        "name": "GAOFEN-1 03",
        "group": "resource",
        "lat": 12.170287894170697,
        "lon": 35.22638213574723,
        "alt_km": 640.291254743307,
        "timestamp": "2025-12-05T07:38:18.505979+00:00",
        "meta_object_name": "GAOFEN-1 03",
        "meta_object_id": "2018-031B",
        "meta_epoch": "2025-12-04T18:34:14.250720",
        "meta_mean_motion": 14.76411499,
        "meta_eccentricity": 0.0002536,
        "meta_inclination": 98.081,
        "meta_ra_of_asc_node": 36.4376,
        "meta_arg_of_pericenter": 353.9599,
        "meta_mean_anomaly": 6.1579,
        "meta_ephemeris_type": 0,
        "meta_classification_type": "U",
        "meta_norad_cat_id": 43260,
        "meta_element_set_no": 999,
        "meta_rev_at_epoch": 41400,
        "meta_bstar": 0.00028001,
        "meta_mean_motion_dot": 1.895e-05,
        "meta_mean_motion_ddot": 0,
        "tle_line1": "1 43260U 18031B   25338.77377605  .00001895  00000+0  28001-3 0  9997",
        "tle_line2": "2 43260  98.0810  36.4376 0002536 353.9599   6.1579 14.76411499414004"
      },
      "geometry": {
        "type": "Point",
        "coordinates": [
          35.22638213574723,
          12.170287894170697
        ]
      }
    },
    {
      "type": "Feature",
      "properties": {
        "norad_id": 43262,
        "name": "GAOFEN-1 04",
        "group": "resource",
        "lat": 38.01856725477882,
        "lon": -136.47131194146118,
        "alt_km": 637.7066991332631,
        "timestamp": "2025-12-05T07:38:18.505989+00:00",
        "meta_object_name": "GAOFEN-1 04",
        "meta_object_id": "2018-031D",
        "meta_epoch": "2025-12-04T17:59:16.266048",
        "meta_mean_motion": 14.76424365,
        "meta_eccentricity": 0.0001302,
        "meta_inclination": 98.082,
        "meta_ra_of_asc_node": 36.5814,
        "meta_arg_of_pericenter": 61.7666,
        "meta_mean_anomaly": 298.3675,
        "meta_ephemeris_type": 0,
        "meta_classification_type": "U",
        "meta_norad_cat_id": 43262,
        "meta_element_set_no": 999,
        "meta_rev_at_epoch": 41399,
        "meta_bstar": 0.00027442,
        "meta_mean_motion_dot": 1.856e-05,
        "meta_mean_motion_ddot": 0,
        "tle_line1": "1 43262U 18031D   25338.74949382  .00001856  00000+0  27442-3 0  9998",
        "tle_line2": "2 43262  98.0820  36.5814 0001302  61.7666 298.3675 14.76424365413999"
      },
      "geometry": {
        "type": "Point",
        "coordinates": [
          -136.47131194146118,
          38.01856725477882
        ]
      }
    },
    {
      "type": "Feature",
      "properties": {
        "norad_id": 43437,
        "name": "SENTINEL-3B",
        "group": "resource",
        "lat": -13.68571252422228,
        "lon": -137.50930846785022,
        "alt_km": 807.0882386278727,
        "timestamp": "2025-12-05T07:38:18.506003+00:00",
        "meta_object_name": "SENTINEL-3B",
        "meta_object_id": "2018-039A",
        "meta_epoch": "2025-12-04T15:35:07.443744",
        "meta_mean_motion": 14.26738162,
        "meta_eccentricity": 0.0001476,
        "meta_inclination": 98.6277,
        "meta_ra_of_asc_node": 43.9502,
        "meta_arg_of_pericenter": 110.5365,
        "meta_mean_anomaly": 249.5973,
        "meta_ephemeris_type": 0,
        "meta_classification_type": "U",
        "meta_norad_cat_id": 43437,
        "meta_element_set_no": 999,
        "meta_rev_at_epoch": 39638,
        "meta_bstar": 0.00015035,
        "meta_mean_motion_dot": 3.2e-06,
        "meta_mean_motion_ddot": 0,
        "tle_line1": "1 43437U 18039A   25338.64939171  .00000320  00000+0  15035-3 0  9994",
        "tle_line2": "2 43437  98.6277  43.9502 0001476 110.5365 249.5973 14.26738162396382"
      },
      "geometry": {
        "type": "Point",
        "coordinates": [
          -137.50930846785022,
          -13.68571252422228
        ]
      }
    },
    {
      "type": "Feature",
      "properties": {
        "norad_id": 43461,
        "name": "GAOFEN-5 01",
        "group": "resource",
        "lat": 4.553598897579393,
        "lon": -58.520539919234785,
        "alt_km": 693.1956213620642,
        "timestamp": "2025-12-05T07:38:18.506014+00:00",
        "meta_object_name": "GAOFEN-5 01",
        "meta_object_id": "2018-043A",
        "meta_epoch": "2025-12-04T11:53:06.565632",
        "meta_mean_motion": 14.60395735,
        "meta_eccentricity": 0.0001499,
        "meta_inclination": 98.4313,
        "meta_ra_of_asc_node": 301.3191,
        "meta_arg_of_pericenter": 7.6077,
        "meta_mean_anomaly": 352.5145,
        "meta_ephemeris_type": 0,
        "meta_classification_type": "U",
        "meta_norad_cat_id": 43461,
        "meta_element_set_no": 999,
        "meta_rev_at_epoch": 40327,
        "meta_bstar": 0.00021847,
        "meta_mean_motion_dot": 1.009e-05,
        "meta_mean_motion_ddot": 0,
        "tle_line1": "1 43461U 18043A   25338.49521488  .00001009  00000+0  21847-3 0  9990",
        "tle_line2": "2 43461  98.4313 301.3191 0001499   7.6077 352.5145 14.60395735403270"
      },
      "geometry": {
        "type": "Point",
        "coordinates": [
          -58.520539919234785,
          4.553598897579393
        ]
      }
    },
    {
      "type": "Feature",
      "properties": {
        "norad_id": 43484,
        "name": "GAOFEN-6",
        "group": "resource",
        "lat": -69.0281806444197,
        "lon": 64.79974766340285,
        "alt_km": 656.0520629991724,
        "timestamp": "2025-12-05T07:38:18.506025+00:00",
        "meta_object_name": "GAOFEN-6",
        "meta_object_id": "2018-048A",
        "meta_epoch": "2025-12-04T18:56:46.891968",
        "meta_mean_motion": 14.76543198,
        "meta_eccentricity": 0.0013312,
        "meta_inclination": 97.8042,
        "meta_ra_of_asc_node": 43.3227,
        "meta_arg_of_pericenter": 87.0633,
        "meta_mean_anomaly": 273.21,
        "meta_ephemeris_type": 0,
        "meta_classification_type": "U",
        "meta_norad_cat_id": 43484,
        "meta_element_set_no": 999,
        "meta_rev_at_epoch": 40470,
        "meta_bstar": 0.00011209,
        "meta_mean_motion_dot": 7.33e-06,
        "meta_mean_motion_ddot": 0,
        "tle_line1": "1 43484U 18048A   25338.78943162  .00000733  00000+0  11209-3 0  9993",
        "tle_line2": "2 43484  97.8042  43.3227 0013312  87.0633 273.2100 14.76543198404701"
      },
      "geometry": {
        "type": "Point",
        "coordinates": [
          64.79974766340285,
          -69.0281806444197
        ]
      }
    },
    {
      "type": "Feature",
      "properties": {
        "norad_id": 43585,
        "name": "GAOFEN-11 01",
        "group": "resource",
        "lat": -37.48638324601868,
        "lon": 47.84752218500429,
        "alt_km": 423.40555833559847,
        "timestamp": "2025-12-05T07:38:18.506035+00:00",
        "meta_object_name": "GAOFEN-11 01",
        "meta_object_id": "2018-063A",
        "meta_epoch": "2025-12-04T17:50:48.433632",
        "meta_mean_motion": 15.48885726,
        "meta_eccentricity": 0.0004814,
        "meta_inclination": 97.1576,
        "meta_ra_of_asc_node": 41.747,
        "meta_arg_of_pericenter": 348.8228,
        "meta_mean_anomaly": 11.2916,
        "meta_ephemeris_type": 0,
        "meta_classification_type": "U",
        "meta_norad_cat_id": 43585,
        "meta_element_set_no": 999,
        "meta_rev_at_epoch": 41018,
        "meta_bstar": 0.00047926,
        "meta_mean_motion_dot": 0.00025797,
        "meta_mean_motion_ddot": 0,
        "tle_line1": "1 43585U 18063A   25338.74361613  .00025797  00000+0  47926-3 0  9995",
        "tle_line2": "2 43585  97.1576  41.7470 0004814 348.8228  11.2916 15.48885726410185"
      },
      "geometry": {
        "type": "Point",
        "coordinates": [
          47.84752218500429,
          -37.48638324601868
        ]
      }
    },
    {
      "type": "Feature",
      "properties": {
        "norad_id": 43613,
        "name": "ICESAT-2",
        "group": "resource",
        "lat": -76.06535818649499,
        "lon": 50.61429375659203,
        "alt_km": 488.40386738946563,
        "timestamp": "2025-12-05T07:38:18.506045+00:00",
        "meta_object_name": "ICESAT-2",
        "meta_object_id": "2018-070A",
        "meta_epoch": "2025-12-04T16:22:39.575136",
        "meta_mean_motion": 15.28289414,
        "meta_eccentricity": 5.07e-05,
        "meta_inclination": 92.0056,
        "meta_ra_of_asc_node": 238.5621,
        "meta_arg_of_pericenter": 145.7146,
        "meta_mean_anomaly": 214.4136,
        "meta_ephemeris_type": 0,
        "meta_classification_type": "U",
        "meta_norad_cat_id": 43613,
        "meta_element_set_no": 999,
        "meta_rev_at_epoch": 40275,
        "meta_bstar": 0.00099762,
        "meta_mean_motion_dot": 0.00027537,
        "meta_mean_motion_ddot": 0,
        "tle_line1": "1 43613U 18070A   25338.68240249  .00027537  00000+0  99762-3 0  9998",
        "tle_line2": "2 43613  92.0056 238.5621 0000507 145.7146 214.4136 15.28289414402751"
      },
      "geometry": {
        "type": "Point",
        "coordinates": [
          50.61429375659203,
          -76.06535818649499
        ]
      }
    }
  ]
}